ONEWEB-0340             
1 49206U 21083W   25091.83650646  .00000070  00000+0  14550-3 0  9994
2 49206  87.9092  63.1850 0001888  87.9191 272.2157 13.18684703173098
ONEWEB-0341             
1 49207U 21083X   25091.46502847 -.00000027  00000+0 -10136-3 0  9993
2 49207  87.9092  63.2694 0001397  84.6230 275.5061 13.18687585171773
ONEWEB-0342             
1 49208U 21083Y   25091.76452968  .00000086  00000+0  17967-3 0  9997
2 49208  87.9325   2.3154 0001839  74.7271 285.4065 13.20769942179812
ONEWEB-0343             
1 49209U 21083Z   25091.83964776  .00000078  00000+0  16409-3 0  9992
2 49209  87.9085  63.1849 0001372  69.7452 290.3828 13.18688255173167
ONEWEB-0344             
1 49210U 21083AA  25091.57983815 -.00000045  00000+0 -16098-3 0  9990
2 49210  87.8956  48.0294 0001494  87.1076 273.0223 13.11938512172929
ONEWEB-0345             
1 49211U 21083AB  25091.81458673 -.00000083  00000+0 -26105-3 0  9999
2 49211  87.8956  47.9443 0001418  86.8963 273.2328 13.13472365174269
ONEWEB-0346             
1 49212U 21083AC  25091.46976458 -.00000176  00000+0 -47837-3 0  9995
2 49212  87.9091  63.2779 0002121  96.7290 263.4084 13.18686120171762
ONEWEB-0348             
1 49213U 21083AD  25091.75506657  .00000081  00000+0  16787-3 0  9991
2 49213  87.9334   2.3165 0001557 100.7462 259.3846 13.20771502179844
